{"type": "FeatureCollection", "name": "facilities_fissile", "meta": {"built": "2026-09-22", "source": "IPFM facility maps and tables, as of 2026; designations as IPFM gives them"}, "features": [{"type": "Feature", "geometry": {"type": "Point", "coordinates": [-70.870571, -41.192238]}, "properties": {"id": "IPFM:enrichment:argentina:pilcaniyeu", "name": "Pilcaniyeu", "country": "Argentina", "stage": "enrichment", "designation": "Civilian", "status": "Not operating", "safeguards": "yes", "capacity": "(20)", "capacity_unit": "tSWU/yr", "coord_tier": 2, "coord_source": "IPFM map data", "prov": [{"tier": 2, "source": "IPFM, Facilities: Enrichment plants (map and table, as of 2026)", "url": "https://fissilematerials.org/facilities/enrichment_plants.html", "retrieved": "2026-09-22"}]}}, {"type": "Feature", "geometry": {"type": "Point", "coordinates": [-44.646009, -22.50405]}, "properties": {"id": "IPFM:enrichment:brazil:resende", "name": "Resende", "country": "Brazil", "stage": "enrichment", "designation": "Civilian", "status": "Expanding", "safeguards": "yes", "capacity": "50", "capacity_unit": "tSWU/yr", "coord_tier": 2, "coord_source": "IPFM map data", "prov": [{"tier": 2, "source": "IPFM, Facilities: Enrichment plants (map and table, as of 2026)", "url": "https://fissilematerials.org/facilities/enrichment_plants.html", "retrieved": "2026-09-22"}]}}, {"type": "Feature", "geometry": {"type": "Point", "coordinates": [107.431298, 33.263223]}, "properties": {"id": "IPFM:enrichment:china:hanzhong", "name": "Hanzhong", "country": "China", "stage": "enrichment", "designation": "Civilian", "status": "Operating", "safeguards": "(yes)", "capacity": "2700", "capacity_unit": "tSWU/yr", "coord_tier": 2, "coord_source": "IPFM map data", "prov": [{"tier": 2, "source": "IPFM, Facilities: Enrichment plants (map and table, as of 2026)", "url": "https://fissilematerials.org/facilities/enrichment_plants.html", "retrieved": "2026-09-22"}]}}, {"type": "Feature", "geometry": {"type": "Point", "coordinates": [103.52355, 36.148092]}, "properties": {"id": "IPFM:enrichment:china:lanzhou", "name": "Lanzhou", "country": "China", "stage": "enrichment", "designation": "Civilian", "status": "Operating", "safeguards": "offered", "capacity": "4100-4600", "capacity_unit": "tSWU/yr", "coord_tier": 2, "coord_source": "IPFM map data", "prov": [{"tier": 2, "source": "IPFM, Facilities: Enrichment plants (map and table, as of 2026)", "url": "https://fissilematerials.org/facilities/enrichment_plants.html", "retrieved": "2026-09-22"}]}}, {"type": "Feature", "geometry": {"type": "Point", "coordinates": [103.490311, 29.644083]}, "properties": {"id": "IPFM:enrichment:china:emeishan", "name": "Emeishan", "country": "China", "stage": "enrichment", "designation": "Civilian", "status": "Operating", "safeguards": "no", "capacity": "3700-4200", "capacity_unit": "tSWU/yr", "coord_tier": 2, "coord_source": "IPFM map data", "prov": [{"tier": 2, "source": "IPFM, Facilities: Enrichment plants (map and table, as of 2026)", "url": "https://fissilematerials.org/facilities/enrichment_plants.html", "retrieved": "2026-09-22"}]}}, {"type": "Feature", "geometry": {"type": "Point", "coordinates": [103.064379, 29.234749]}, "properties": {"id": "IPFM:enrichment:china:heping", "name": "Heping", "country": "China", "stage": "enrichment", "designation": "Dual-use", "status": "Operating", "safeguards": "no", "capacity": "230", "capacity_unit": "tSWU/yr", "coord_tier": 2, "coord_source": "IPFM map data", "prov": [{"tier": 2, "source": "IPFM, Facilities: Enrichment plants (map and table, as of 2026)", "url": "https://fissilematerials.org/facilities/enrichment_plants.html", "retrieved": "2026-09-22"}]}}, {"type": "Feature", "geometry": {"type": "Point", "coordinates": [4.719856, 44.331311]}, "properties": {"id": "IPFM:enrichment:france:georges besse ii", "name": "Georges Besse II", "country": "France", "stage": "enrichment", "designation": "Civilian", "status": "Expanding", "safeguards": "yes", "capacity": "7500", "capacity_unit": "tSWU/yr", "coord_tier": 2, "coord_source": "IPFM map data", "prov": [{"tier": 2, "source": "IPFM, Facilities: Enrichment plants (map and table, as of 2026)", "url": "https://fissilematerials.org/facilities/enrichment_plants.html", "retrieved": "2026-09-22"}]}}, {"type": "Feature", "geometry": {"type": "Point", "coordinates": [76.510555, 12.356222]}, "properties": {"id": "IPFM:enrichment:india:rattehalli", "name": "Rattehalli", "country": "India", "stage": "enrichment", "designation": "Military", "status": "Operating", "safeguards": "no", "capacity": "17-31", "capacity_unit": "tSWU/yr", "coord_tier": 2, "coord_source": "IPFM map data", "prov": [{"tier": 2, "source": "IPFM, Facilities: Enrichment plants (map and table, as of 2026)", "url": "https://fissilematerials.org/facilities/enrichment_plants.html", "retrieved": "2026-09-22"}]}}, {"type": "Feature", "geometry": {"type": "Point", "coordinates": [51.722826, 33.721752]}, "properties": {"id": "IPFM:enrichment:iran:natanz", "name": "Natanz", "country": "Iran", "stage": "enrichment", "designation": "Civilian", "status": "Uncertain", "safeguards": "yes", "capacity": "(48-60)", "capacity_unit": "tSWU/yr", "coord_tier": 2, "coord_source": "IPFM map data", "prov": [{"tier": 2, "source": "IPFM, Facilities: Enrichment plants (map and table, as of 2026)", "url": "https://fissilematerials.org/facilities/enrichment_plants.html", "retrieved": "2026-09-22"}]}}, {"type": "Feature", "geometry": {"type": "Point", "coordinates": [50.735063, 34.9178]}, "properties": {"id": "IPFM:enrichment:iran:fordow", "name": "Fordow", "country": "Iran", "stage": "enrichment", "designation": "Civilian", "status": "Uncertain", "safeguards": "yes", "capacity": "(11-18)", "capacity_unit": "tSWU/yr", "coord_tier": 2, "coord_source": "IPFM map data", "prov": [{"tier": 2, "source": "IPFM, Facilities: Enrichment plants (map and table, as of 2026)", "url": "https://fissilematerials.org/facilities/enrichment_plants.html", "retrieved": "2026-09-22"}]}}, {"type": "Feature", "geometry": {"type": "Point", "coordinates": [141.323664, 40.959777]}, "properties": {"id": "IPFM:enrichment:japan:rokkasho", "name": "Rokkasho", "country": "Japan", "stage": "enrichment", "designation": "Civilian", "status": "Restarting", "safeguards": "yes", "capacity": "150", "capacity_unit": "tSWU/yr", "coord_tier": 2, "coord_source": "IPFM map data", "prov": [{"tier": 2, "source": "IPFM, Facilities: Enrichment plants (map and table, as of 2026)", "url": "https://fissilematerials.org/facilities/enrichment_plants.html", "retrieved": "2026-09-22"}]}}, {"type": "Feature", "geometry": {"type": "Point", "coordinates": [6.692106, 52.335356]}, "properties": {"id": "IPFM:enrichment:netherlands:almelo", "name": "Almelo", "country": "Netherlands", "stage": "enrichment", "designation": "Civilian", "status": "Expanding", "safeguards": "yes", "capacity": "5100", "capacity_unit": "tSWU/yr", "coord_tier": 2, "coord_source": "IPFM map data", "prov": [{"tier": 2, "source": "IPFM, Facilities: Enrichment plants (map and table, as of 2026)", "url": "https://fissilematerials.org/facilities/enrichment_plants.html", "retrieved": "2026-09-22"}]}}, {"type": "Feature", "geometry": {"type": "Point", "coordinates": [7.074722, 52.216118]}, "properties": {"id": "IPFM:enrichment:germany:gronau", "name": "Gronau", "country": "Germany", "stage": "enrichment", "designation": "Civilian", "status": "Expanding", "safeguards": "yes", "capacity": "3600", "capacity_unit": "tSWU/yr", "coord_tier": 2, "coord_source": "IPFM map data", "prov": [{"tier": 2, "source": "IPFM, Facilities: Enrichment plants (map and table, as of 2026)", "url": "https://fissilematerials.org/facilities/enrichment_plants.html", "retrieved": "2026-09-22"}]}}, {"type": "Feature", "geometry": {"type": "Point", "coordinates": [125.754, 39.8]}, "properties": {"id": "IPFM:enrichment:north korea:yongbyon", "name": "Yongbyon", "country": "North Korea", "stage": "enrichment", "designation": "Uncertain", "status": "Operating", "safeguards": "no", "capacity": "65-70", "capacity_unit": "tSWU/yr", "coord_tier": 2, "coord_source": "IPFM map data", "prov": [{"tier": 2, "source": "IPFM, Facilities: Enrichment plants (map and table, as of 2026)", "url": "https://fissilematerials.org/facilities/enrichment_plants.html", "retrieved": "2026-09-22"}]}}, {"type": "Feature", "geometry": {"type": "Point", "coordinates": [73.376853, 33.620245]}, "properties": {"id": "IPFM:enrichment:pakistan:kahuta", "name": "Kahuta", "country": "Pakistan", "stage": "enrichment", "designation": "Military", "status": "Operating", "safeguards": "no", "capacity": "30-45", "capacity_unit": "tSWU/yr", "coord_tier": 2, "coord_source": "IPFM map data", "prov": [{"tier": 2, "source": "IPFM, Facilities: Enrichment plants (map and table, as of 2026)", "url": "https://fissilematerials.org/facilities/enrichment_plants.html", "retrieved": "2026-09-22"}]}}, {"type": "Feature", "geometry": {"type": "Point", "coordinates": [72.742235, 33.808273]}, "properties": {"id": "IPFM:enrichment:pakistan:gadwal", "name": "Gadwal", "country": "Pakistan", "stage": "enrichment", "designation": "Military", "status": "Operating", "safeguards": "no", "capacity": "?", "capacity_unit": "tSWU/yr", "coord_tier": 2, "coord_source": "IPFM map data", "prov": [{"tier": 2, "source": "IPFM, Facilities: Enrichment plants (map and table, as of 2026)", "url": "https://fissilematerials.org/facilities/enrichment_plants.html", "retrieved": "2026-09-22"}]}}, {"type": "Feature", "geometry": {"type": "Point", "coordinates": [103.875075, 52.465437]}, "properties": {"id": "IPFM:enrichment:russia:angarsk", "name": "Angarsk", "country": "Russia", "stage": "enrichment", "designation": "Civilian", "status": "Operating", "safeguards": "no", "capacity": "4000", "capacity_unit": "tSWU/yr", "coord_tier": 2, "coord_source": "IPFM map data", "prov": [{"tier": 2, "source": "IPFM, Facilities: Enrichment plants (map and table, as of 2026)", "url": "https://fissilematerials.org/facilities/enrichment_plants.html", "retrieved": "2026-09-22"}]}}, {"type": "Feature", "geometry": {"type": "Point", "coordinates": [60.107101, 57.274388]}, "properties": {"id": "IPFM:enrichment:russia:novouralsk", "name": "Novouralsk", "country": "Russia", "stage": "enrichment", "designation": "Civilian", "status": "Operating", "safeguards": "no", "capacity": "13300", "capacity_unit": "tSWU/yr", "coord_tier": 2, "coord_source": "IPFM map data", "prov": [{"tier": 2, "source": "IPFM, Facilities: Enrichment plants (map and table, as of 2026)", "url": "https://fissilematerials.org/facilities/enrichment_plants.html", "retrieved": "2026-09-22"}]}}, {"type": "Feature", "geometry": {"type": "Point", "coordinates": [94.500821, 56.113882]}, "properties": {"id": "IPFM:enrichment:russia:zelenogorsk", "name": "Zelenogorsk", "country": "Russia", "stage": "enrichment", "designation": "Civilian", "status": "Operating", "safeguards": "no", "capacity": "7900", "capacity_unit": "tSWU/yr", "coord_tier": 2, "coord_source": "IPFM map data", "prov": [{"tier": 2, "source": "IPFM, Facilities: Enrichment plants (map and table, as of 2026)", "url": "https://fissilematerials.org/facilities/enrichment_plants.html", "retrieved": "2026-09-22"}]}}, {"type": "Feature", "geometry": {"type": "Point", "coordinates": [84.863623, 56.618782]}, "properties": {"id": "IPFM:enrichment:russia:seversk", "name": "Seversk", "country": "Russia", "stage": "enrichment", "designation": "Civilian", "status": "Operating", "safeguards": "no", "capacity": "3800", "capacity_unit": "tSWU/yr", "coord_tier": 2, "coord_source": "IPFM map data", "prov": [{"tier": 2, "source": "IPFM, Facilities: Enrichment plants (map and table, as of 2026)", "url": "https://fissilematerials.org/facilities/enrichment_plants.html", "retrieved": "2026-09-22"}]}}, {"type": "Feature", "geometry": {"type": "Point", "coordinates": [-2.952275, 53.262933]}, "properties": {"id": "IPFM:enrichment:united kingdom:capenhurst", "name": "Capenhurst", "country": "United Kingdom", "stage": "enrichment", "designation": "Civilian", "status": "Expanding", "safeguards": "yes", "capacity": "4500", "capacity_unit": "tSWU/yr", "coord_tier": 2, "coord_source": "IPFM map data", "prov": [{"tier": 2, "source": "IPFM, Facilities: Enrichment plants (map and table, as of 2026)", "url": "https://fissilematerials.org/facilities/enrichment_plants.html", "retrieved": "2026-09-22"}]}}, {"type": "Feature", "geometry": {"type": "Point", "coordinates": [-103.079467, 32.434841]}, "properties": {"id": "IPFM:enrichment:united states:eunice", "name": "Eunice", "country": "United States", "stage": "enrichment", "designation": "Civilian", "status": "Expanding", "safeguards": "offered", "capacity": "4650", "capacity_unit": "tSWU/yr", "coord_tier": 2, "coord_source": "IPFM map data", "prov": [{"tier": 2, "source": "IPFM, Facilities: Enrichment plants (map and table, as of 2026)", "url": "https://fissilematerials.org/facilities/enrichment_plants.html", "retrieved": "2026-09-22"}]}}, {"type": "Feature", "geometry": {"type": "Point", "coordinates": [-83.00131578, 39.01028292]}, "properties": {"id": "IPFM:enrichment:united states:piketon", "name": "Piketon", "country": "United States", "stage": "enrichment", "designation": "Civilian", "status": "Expanding", "safeguards": "no", "capacity": "[6-7]", "capacity_unit": "tSWU/yr", "coord_tier": 2, "coord_source": "IPFM map data", "prov": [{"tier": 2, "source": "IPFM, Facilities: Enrichment plants (map and table, as of 2026)", "url": "https://fissilematerials.org/facilities/enrichment_plants.html", "retrieved": "2026-09-22"}]}}, {"type": "Feature", "geometry": {"type": "Point", "coordinates": [98.49797, 40.332828]}, "properties": {"id": "IPFM:reprocessing:china:jinta", "name": "Jinta", "country": "China", "stage": "reprocessing", "designation": "(Civilian)", "status": "Construction completed", "safeguards": "no", "capacity": "400", "capacity_unit": "tHM/yr", "coord_tier": 2, "coord_source": "IPFM map data", "prov": [{"tier": 2, "source": "IPFM, Facilities: Reprocessing plants (map and table, as of 2026)", "url": "https://fissilematerials.org/facilities/reprocessing_plants.html", "retrieved": "2026-09-22"}]}}, {"type": "Feature", "geometry": {"type": "Point", "coordinates": [97.371247, 40.23692]}, "properties": {"id": "IPFM:reprocessing:china:jiuquan", "name": "Jiuquan", "country": "China", "stage": "reprocessing", "designation": "Civilian", "status": "Operating", "safeguards": "no", "capacity": "50", "capacity_unit": "tHM/yr", "coord_tier": 2, "coord_source": "IPFM map data", "prov": [{"tier": 2, "source": "IPFM, Facilities: Reprocessing plants (map and table, as of 2026)", "url": "https://fissilematerials.org/facilities/reprocessing_plants.html", "retrieved": "2026-09-22"}]}}, {"type": "Feature", "geometry": {"type": "Point", "coordinates": [-1.878031, 49.678819]}, "properties": {"id": "IPFM:reprocessing:france:la hague", "name": "La Hague", "country": "France", "stage": "reprocessing", "designation": "Civilian", "status": "Operating", "safeguards": "yes", "capacity": "1000", "capacity_unit": "tHM/yr", "coord_tier": 2, "coord_source": "IPFM map data", "prov": [{"tier": 2, "source": "IPFM, Facilities: Reprocessing plants (map and table, as of 2026)", "url": "https://fissilematerials.org/facilities/reprocessing_plants.html", "retrieved": "2026-09-22"}]}}, {"type": "Feature", "geometry": {"type": "Point", "coordinates": [72.665142, 19.836413]}, "properties": {"id": "IPFM:reprocessing:india:tarapur", "name": "Tarapur", "country": "India", "stage": "reprocessing", "designation": "Dual", "status": "Operating", "safeguards": "no", "capacity": "100", "capacity_unit": "tHM/yr", "coord_tier": 2, "coord_source": "IPFM map data", "prov": [{"tier": 2, "source": "IPFM, Facilities: Reprocessing plants (map and table, as of 2026)", "url": "https://fissilematerials.org/facilities/reprocessing_plants.html", "retrieved": "2026-09-22"}]}}, {"type": "Feature", "geometry": {"type": "Point", "coordinates": [72.925892, 19.018078]}, "properties": {"id": "IPFM:reprocessing:india:trombay", "name": "Trombay", "country": "India", "stage": "reprocessing", "designation": "Military", "status": "Operating", "safeguards": "no", "capacity": "50", "capacity_unit": "tHM/yr", "coord_tier": 2, "coord_source": "IPFM map data", "prov": [{"tier": 2, "source": "IPFM, Facilities: Reprocessing plants (map and table, as of 2026)", "url": "https://fissilematerials.org/facilities/reprocessing_plants.html", "retrieved": "2026-09-22"}]}}, {"type": "Feature", "geometry": {"type": "Point", "coordinates": [80.174265, 12.563955]}, "properties": {"id": "IPFM:reprocessing:india:kalpakkam", "name": "Kalpakkam", "country": "India", "stage": "reprocessing", "designation": "Dual", "status": "Operating", "safeguards": "no", "capacity": "100", "capacity_unit": "tHM/yr", "coord_tier": 2, "coord_source": "IPFM map data", "prov": [{"tier": 2, "source": "IPFM, Facilities: Reprocessing plants (map and table, as of 2026)", "url": "https://fissilematerials.org/facilities/reprocessing_plants.html", "retrieved": "2026-09-22"}]}}, {"type": "Feature", "geometry": {"type": "Point", "coordinates": [35.146272, 31.003115]}, "properties": {"id": "IPFM:reprocessing:israel:dimona", "name": "Dimona", "country": "Israel", "stage": "reprocessing", "designation": "Military", "status": "Operating", "safeguards": "no", "capacity": "40-100", "capacity_unit": "tHM/yr", "coord_tier": 2, "coord_source": "IPFM map data", "prov": [{"tier": 2, "source": "IPFM, Facilities: Reprocessing plants (map and table, as of 2026)", "url": "https://fissilematerials.org/facilities/reprocessing_plants.html", "retrieved": "2026-09-22"}]}}, {"type": "Feature", "geometry": {"type": "Point", "coordinates": [141.326389, 40.9625]}, "properties": {"id": "IPFM:reprocessing:japan:rokkasho", "name": "Rokkasho", "country": "Japan", "stage": "reprocessing", "designation": "Civilian", "status": "Start planned for 2027", "safeguards": "yes", "capacity": "800", "capacity_unit": "tHM/yr", "coord_tier": 2, "coord_source": "IPFM map data", "prov": [{"tier": 2, "source": "IPFM, Facilities: Reprocessing plants (map and table, as of 2026)", "url": "https://fissilematerials.org/facilities/reprocessing_plants.html", "retrieved": "2026-09-22"}]}}, {"type": "Feature", "geometry": {"type": "Point", "coordinates": [125.754, 39.8]}, "properties": {"id": "IPFM:reprocessing:north korea:yongbyon", "name": "Yongbyon", "country": "North Korea", "stage": "reprocessing", "designation": "Military", "status": "Operating", "safeguards": "no", "capacity": "100-150", "capacity_unit": "tHM/yr", "coord_tier": 2, "coord_source": "IPFM map data", "prov": [{"tier": 2, "source": "IPFM, Facilities: Reprocessing plants (map and table, as of 2026)", "url": "https://fissilematerials.org/facilities/reprocessing_plants.html", "retrieved": "2026-09-22"}]}}, {"type": "Feature", "geometry": {"type": "Point", "coordinates": [71.44035, 32.382446]}, "properties": {"id": "IPFM:reprocessing:pakistan:chashma", "name": "Chashma", "country": "Pakistan", "stage": "reprocessing", "designation": "Military", "status": "Under construction", "safeguards": "no", "capacity": "50-100", "capacity_unit": "tHM/yr", "coord_tier": 2, "coord_source": "IPFM map data", "prov": [{"tier": 2, "source": "IPFM, Facilities: Reprocessing plants (map and table, as of 2026)", "url": "https://fissilematerials.org/facilities/reprocessing_plants.html", "retrieved": "2026-09-22"}]}}, {"type": "Feature", "geometry": {"type": "Point", "coordinates": [73.256006, 33.649121]}, "properties": {"id": "IPFM:reprocessing:pakistan:nilore", "name": "Nilore", "country": "Pakistan", "stage": "reprocessing", "designation": "Military", "status": "Operating", "safeguards": "no", "capacity": "20-40", "capacity_unit": "tHM/yr", "coord_tier": 2, "coord_source": "IPFM map data", "prov": [{"tier": 2, "source": "IPFM, Facilities: Reprocessing plants (map and table, as of 2026)", "url": "https://fissilematerials.org/facilities/reprocessing_plants.html", "retrieved": "2026-09-22"}]}}, {"type": "Feature", "geometry": {"type": "Point", "coordinates": [60.802701, 55.695245]}, "properties": {"id": "IPFM:reprocessing:russia:mayak", "name": "Mayak", "country": "Russia", "stage": "reprocessing", "designation": "Dual", "status": "Operating", "safeguards": "no", "capacity": "400", "capacity_unit": "tHM/yr", "coord_tier": 2, "coord_source": "IPFM map data", "prov": [{"tier": 2, "source": "IPFM, Facilities: Reprocessing plants (map and table, as of 2026)", "url": "https://fissilematerials.org/facilities/reprocessing_plants.html", "retrieved": "2026-09-22"}]}}, {"type": "Feature", "geometry": {"type": "Point", "coordinates": [93.643333, 56.350278]}, "properties": {"id": "IPFM:reprocessing:russia:zheleznogorsk", "name": "Zheleznogorsk", "country": "Russia", "stage": "reprocessing", "designation": "Civilian", "status": "Starting up. Full capacity expected in 2026", "safeguards": "no", "capacity": "220", "capacity_unit": "tHM/yr", "coord_tier": 2, "coord_source": "IPFM map data", "prov": [{"tier": 2, "source": "IPFM, Facilities: Reprocessing plants (map and table, as of 2026)", "url": "https://fissilematerials.org/facilities/reprocessing_plants.html", "retrieved": "2026-09-22"}]}}, {"type": "Feature", "geometry": {"type": "Point", "coordinates": [-81.676441, 33.286824]}, "properties": {"id": "IPFM:reprocessing:united states:savannah river site", "name": "Savannah River Site", "country": "United States", "stage": "reprocessing", "designation": "Military", "status": "Operating", "safeguards": "no", "capacity": "15", "capacity_unit": "tHM/yr", "coord_tier": 2, "coord_source": "IPFM map data", "prov": [{"tier": 2, "source": "IPFM, Facilities: Reprocessing plants (map and table, as of 2026)", "url": "https://fissilematerials.org/facilities/reprocessing_plants.html", "retrieved": "2026-09-22"}]}}]}