{"type": "FeatureCollection", "name": "facilities_military", "meta": {"built": "2026-09-22", "rule": "only sites named in an official disclosure or a published compilation; one citation per row; plain descriptions; no protection, layout or inventory detail"}, "features": [{"type": "Feature", "geometry": {"type": "Point", "coordinates": [103.064379, 29.234749]}, "properties": {"id": "IPFM:enrichment:china:heping", "name": "Heping", "country": "China", "stage": "weapons-program", "designation": "Dual-use", "status": "Operating", "safeguards": "no", "capacity": "230", "capacity_unit": "tSWU/yr", "coord_tier": 2, "coord_source": "IPFM map data", "prov": [{"tier": 2, "source": "IPFM, Facilities: Enrichment plants (map and table, as of 2026)", "url": "https://fissilematerials.org/facilities/enrichment_plants.html", "retrieved": "2026-09-22"}]}}, {"type": "Feature", "geometry": {"type": "Point", "coordinates": [76.510555, 12.356222]}, "properties": {"id": "IPFM:enrichment:india:rattehalli", "name": "Rattehalli", "country": "India", "stage": "weapons-program", "designation": "Military", "status": "Operating", "safeguards": "no", "capacity": "17-31", "capacity_unit": "tSWU/yr", "coord_tier": 2, "coord_source": "IPFM map data", "prov": [{"tier": 2, "source": "IPFM, Facilities: Enrichment plants (map and table, as of 2026)", "url": "https://fissilematerials.org/facilities/enrichment_plants.html", "retrieved": "2026-09-22"}]}}, {"type": "Feature", "geometry": {"type": "Point", "coordinates": [125.754, 39.8]}, "properties": {"id": "IPFM:enrichment:north korea:yongbyon", "name": "Yongbyon", "country": "North Korea", "stage": "weapons-program", "designation": "Uncertain", "status": "Operating", "safeguards": "no", "capacity": "65-70", "capacity_unit": "tSWU/yr", "coord_tier": 2, "coord_source": "IPFM map data", "prov": [{"tier": 2, "source": "IPFM, Facilities: Enrichment plants (map and table, as of 2026)", "url": "https://fissilematerials.org/facilities/enrichment_plants.html", "retrieved": "2026-09-22"}]}}, {"type": "Feature", "geometry": {"type": "Point", "coordinates": [73.376853, 33.620245]}, "properties": {"id": "IPFM:enrichment:pakistan:kahuta", "name": "Kahuta", "country": "Pakistan", "stage": "weapons-program", "designation": "Military", "status": "Operating", "safeguards": "no", "capacity": "30-45", "capacity_unit": "tSWU/yr", "coord_tier": 2, "coord_source": "IPFM map data", "prov": [{"tier": 2, "source": "IPFM, Facilities: Enrichment plants (map and table, as of 2026)", "url": "https://fissilematerials.org/facilities/enrichment_plants.html", "retrieved": "2026-09-22"}]}}, {"type": "Feature", "geometry": {"type": "Point", "coordinates": [72.742235, 33.808273]}, "properties": {"id": "IPFM:enrichment:pakistan:gadwal", "name": "Gadwal", "country": "Pakistan", "stage": "weapons-program", "designation": "Military", "status": "Operating", "safeguards": "no", "capacity": "?", "capacity_unit": "tSWU/yr", "coord_tier": 2, "coord_source": "IPFM map data", "prov": [{"tier": 2, "source": "IPFM, Facilities: Enrichment plants (map and table, as of 2026)", "url": "https://fissilematerials.org/facilities/enrichment_plants.html", "retrieved": "2026-09-22"}]}}, {"type": "Feature", "geometry": {"type": "Point", "coordinates": [72.665142, 19.836413]}, "properties": {"id": "IPFM:reprocessing:india:tarapur", "name": "Tarapur", "country": "India", "stage": "weapons-program", "designation": "Dual", "status": "Operating", "safeguards": "no", "capacity": "100", "capacity_unit": "tHM/yr", "coord_tier": 2, "coord_source": "IPFM map data", "prov": [{"tier": 2, "source": "IPFM, Facilities: Reprocessing plants (map and table, as of 2026)", "url": "https://fissilematerials.org/facilities/reprocessing_plants.html", "retrieved": "2026-09-22"}]}}, {"type": "Feature", "geometry": {"type": "Point", "coordinates": [72.925892, 19.018078]}, "properties": {"id": "IPFM:reprocessing:india:trombay", "name": "Trombay", "country": "India", "stage": "weapons-program", "designation": "Military", "status": "Operating", "safeguards": "no", "capacity": "50", "capacity_unit": "tHM/yr", "coord_tier": 2, "coord_source": "IPFM map data", "prov": [{"tier": 2, "source": "IPFM, Facilities: Reprocessing plants (map and table, as of 2026)", "url": "https://fissilematerials.org/facilities/reprocessing_plants.html", "retrieved": "2026-09-22"}]}}, {"type": "Feature", "geometry": {"type": "Point", "coordinates": [80.174265, 12.563955]}, "properties": {"id": "IPFM:reprocessing:india:kalpakkam", "name": "Kalpakkam", "country": "India", "stage": "weapons-program", "designation": "Dual", "status": "Operating", "safeguards": "no", "capacity": "100", "capacity_unit": "tHM/yr", "coord_tier": 2, "coord_source": "IPFM map data", "prov": [{"tier": 2, "source": "IPFM, Facilities: Reprocessing plants (map and table, as of 2026)", "url": "https://fissilematerials.org/facilities/reprocessing_plants.html", "retrieved": "2026-09-22"}]}}, {"type": "Feature", "geometry": {"type": "Point", "coordinates": [35.146272, 31.003115]}, "properties": {"id": "IPFM:reprocessing:israel:dimona", "name": "Dimona", "country": "Israel", "stage": "weapons-program", "designation": "Military", "status": "Operating", "safeguards": "no", "capacity": "40-100", "capacity_unit": "tHM/yr", "coord_tier": 2, "coord_source": "IPFM map data", "prov": [{"tier": 2, "source": "IPFM, Facilities: Reprocessing plants (map and table, as of 2026)", "url": "https://fissilematerials.org/facilities/reprocessing_plants.html", "retrieved": "2026-09-22"}]}}, {"type": "Feature", "geometry": {"type": "Point", "coordinates": [125.754, 39.8]}, "properties": {"id": "IPFM:reprocessing:north korea:yongbyon", "name": "Yongbyon", "country": "North Korea", "stage": "weapons-program", "designation": "Military", "status": "Operating", "safeguards": "no", "capacity": "100-150", "capacity_unit": "tHM/yr", "coord_tier": 2, "coord_source": "IPFM map data", "prov": [{"tier": 2, "source": "IPFM, Facilities: Reprocessing plants (map and table, as of 2026)", "url": "https://fissilematerials.org/facilities/reprocessing_plants.html", "retrieved": "2026-09-22"}]}}, {"type": "Feature", "geometry": {"type": "Point", "coordinates": [71.44035, 32.382446]}, "properties": {"id": "IPFM:reprocessing:pakistan:chashma", "name": "Chashma", "country": "Pakistan", "stage": "weapons-program", "designation": "Military", "status": "Under construction", "safeguards": "no", "capacity": "50-100", "capacity_unit": "tHM/yr", "coord_tier": 2, "coord_source": "IPFM map data", "prov": [{"tier": 2, "source": "IPFM, Facilities: Reprocessing plants (map and table, as of 2026)", "url": "https://fissilematerials.org/facilities/reprocessing_plants.html", "retrieved": "2026-09-22"}]}}, {"type": "Feature", "geometry": {"type": "Point", "coordinates": [73.256006, 33.649121]}, "properties": {"id": "IPFM:reprocessing:pakistan:nilore", "name": "Nilore", "country": "Pakistan", "stage": "weapons-program", "designation": "Military", "status": "Operating", "safeguards": "no", "capacity": "20-40", "capacity_unit": "tHM/yr", "coord_tier": 2, "coord_source": "IPFM map data", "prov": [{"tier": 2, "source": "IPFM, Facilities: Reprocessing plants (map and table, as of 2026)", "url": "https://fissilematerials.org/facilities/reprocessing_plants.html", "retrieved": "2026-09-22"}]}}, {"type": "Feature", "geometry": {"type": "Point", "coordinates": [60.802701, 55.695245]}, "properties": {"id": "IPFM:reprocessing:russia:mayak", "name": "Mayak", "country": "Russia", "stage": "weapons-program", "designation": "Dual", "status": "Operating", "safeguards": "no", "capacity": "400", "capacity_unit": "tHM/yr", "coord_tier": 2, "coord_source": "IPFM map data", "prov": [{"tier": 2, "source": "IPFM, Facilities: Reprocessing plants (map and table, as of 2026)", "url": "https://fissilematerials.org/facilities/reprocessing_plants.html", "retrieved": "2026-09-22"}]}}, {"type": "Feature", "geometry": {"type": "Point", "coordinates": [-81.676441, 33.286824]}, "properties": {"id": "IPFM:reprocessing:united states:savannah river site", "name": "Savannah River Site", "country": "United States", "stage": "weapons-program", "designation": "Military", "status": "Operating", "safeguards": "no", "capacity": "15", "capacity_unit": "tHM/yr", "coord_tier": 2, "coord_source": "IPFM map data", "prov": [{"tier": 2, "source": "IPFM, Facilities: Reprocessing plants (map and table, as of 2026)", "url": "https://fissilematerials.org/facilities/reprocessing_plants.html", "retrieved": "2026-09-22"}]}}, {"type": "Feature", "geometry": {"type": "Point", "coordinates": [-106.32416667, 35.87555556]}, "properties": {"id": "NSE:los alamos national laboratory", "name": "Los Alamos National Laboratory", "country": "United States", "role": "design laboratory", "city": "Los Alamos", "region": "New Mexico", "description": "Nuclear weapon design laboratory responsible for providing research, development, and manufacturing guidance authority; plutonium pit production.", "stage": "weapons-program", "designation": "Military (state-disclosed)", "coord_tier": 3, "coord_source": "Wikidata Q379848", "prov": [{"tier": 1, "source": "DoD Nuclear Matters Handbook 2020 (rev.) ch. 5", "url": "https://www.acq.osd.mil/ncbdp/nm/NMHB2020rev/chapters/chapter5.html", "retrieved": "2026-09-22"}]}}, {"type": "Feature", "geometry": {"type": "Point", "coordinates": [-121.7095, 37.686]}, "properties": {"id": "NSE:lawrence livermore national laboratory", "name": "Lawrence Livermore National Laboratory", "country": "United States", "role": "design laboratory", "city": "Livermore", "region": "California", "description": "Nuclear weapon design laboratory responsible for providing research, development, and manufacturing guidance authority.", "stage": "weapons-program", "designation": "Military (state-disclosed)", "coord_tier": 3, "coord_source": "Wikidata Q519826", "prov": [{"tier": 1, "source": "DoD Nuclear Matters Handbook 2020 (rev.) ch. 5", "url": "https://www.acq.osd.mil/ncbdp/nm/NMHB2020rev/chapters/chapter5.html", "retrieved": "2026-09-22"}]}}, {"type": "Feature", "geometry": {"type": "Point", "coordinates": [-106.543136, 35.050657]}, "properties": {"id": "NSE:sandia national laboratories", "name": "Sandia National Laboratories", "country": "United States", "role": "design laboratory (non-nuclear components)", "city": "Albuquerque", "region": "New Mexico", "description": "Responsible for non-nuclear components of U.S. nuclear weapons; second campus at Livermore, California.", "stage": "weapons-program", "designation": "Military (state-disclosed)", "coord_tier": 3, "coord_source": "Wikidata Q1736748", "prov": [{"tier": 1, "source": "DoD Nuclear Matters Handbook 2020 (rev.) ch. 5", "url": "https://www.acq.osd.mil/ncbdp/nm/NMHB2020rev/chapters/chapter5.html", "retrieved": "2026-09-22"}]}}, {"type": "Feature", "geometry": {"type": "Point", "coordinates": [-94.569, 38.958]}, "properties": {"id": "NSE:kansas city national security campus", "name": "Kansas City National Security Campus", "country": "United States", "role": "production (non-nuclear components)", "city": "Kansas City", "region": "Missouri", "description": "Procurement and manufacturing of non-nuclear components for nuclear weapons.", "stage": "weapons-program", "designation": "Military (state-disclosed)", "coord_tier": 3, "coord_source": "Wikidata Q6364819", "prov": [{"tier": 1, "source": "DoD Nuclear Matters Handbook 2020 (rev.) ch. 5", "url": "https://www.acq.osd.mil/ncbdp/nm/NMHB2020rev/chapters/chapter5.html", "retrieved": "2026-09-22"}]}}, {"type": "Feature", "geometry": {"type": "Point", "coordinates": [-101.56, 35.3116]}, "properties": {"id": "NSE:pantex", "name": "Pantex Plant", "country": "United States", "role": "assembly and disassembly", "city": "Amarillo", "region": "Texas", "description": "Nuclear weapon assembly, disassembly and high-explosive work; stockpile stewardship, nonproliferation, and safeguards and security missions.", "stage": "weapons-program", "designation": "Military (state-disclosed)", "coord_tier": 3, "coord_source": "Wikidata Q2049862", "prov": [{"tier": 1, "source": "DoD Nuclear Matters Handbook 2020 (rev.) ch. 5", "url": "https://www.acq.osd.mil/ncbdp/nm/NMHB2020rev/chapters/chapter5.html", "retrieved": "2026-09-22"}]}}, {"type": "Feature", "geometry": {"type": "Point", "coordinates": [-81.65, 33.25]}, "properties": {"id": "NSE:savannah river site", "name": "Savannah River Site", "country": "United States", "role": "tritium and plutonium", "city": "Aiken", "region": "South Carolina", "description": "Manages tritium inventories and facilities; planned plutonium pit production; H-Canyon reprocessing (see fissile layer).", "stage": "weapons-program", "designation": "Military (state-disclosed)", "coord_tier": 3, "coord_source": "Wikidata Q2458173", "prov": [{"tier": 1, "source": "DoD Nuclear Matters Handbook 2020 (rev.) ch. 5", "url": "https://www.acq.osd.mil/ncbdp/nm/NMHB2020rev/chapters/chapter5.html", "retrieved": "2026-09-22"}]}}, {"type": "Feature", "geometry": {"type": "Point", "coordinates": [-84.2547, 35.9883]}, "properties": {"id": "NSE:y 12 national security complex", "name": "Y-12 National Security Complex", "country": "United States", "role": "uranium components and secondaries", "city": "Oak Ridge", "region": "Tennessee", "description": "Production or refurbishment of complex nuclear weapon components and secondaries; national HEU processing and storage.", "stage": "weapons-program", "designation": "Military (state-disclosed)", "coord_tier": 3, "coord_source": "Wikidata Q2061309", "prov": [{"tier": 1, "source": "DoD Nuclear Matters Handbook 2020 (rev.) ch. 5", "url": "https://www.acq.osd.mil/ncbdp/nm/NMHB2020rev/chapters/chapter5.html", "retrieved": "2026-09-22"}]}}, {"type": "Feature", "geometry": {"type": "Point", "coordinates": [-116.05, 37.116666666667]}, "properties": {"id": "NSE:nevada national security site", "name": "Nevada National Security Site", "country": "United States", "role": "test site and experiments", "city": "Nye County", "region": "Nevada", "description": "Former nuclear test site; subcritical experiments, nuclear and radiological emergency response training, support to national security customers.", "stage": "weapons-program", "designation": "Military (state-disclosed)", "coord_tier": 3, "coord_source": "Wikidata Q1344605", "prov": [{"tier": 1, "source": "DoD Nuclear Matters Handbook 2020 (rev.) ch. 5", "url": "https://www.acq.osd.mil/ncbdp/nm/NMHB2020rev/chapters/chapter5.html", "retrieved": "2026-09-22"}]}}, {"type": "Feature", "geometry": {"type": "Point", "coordinates": [-1.140709, 51.369485]}, "properties": {"id": "WP:awe aldermaston", "name": "AWE Aldermaston", "country": "United Kingdom", "role": "design laboratory and component manufacture", "city": "Aldermaston", "region": "Berkshire", "status": "operating", "description": "Site described by the regulator as covering the entire life cycle of nuclear warheads: research, design, component manufacture and assembly, in-service support, decommissioning.", "stage": "weapons-program", "designation": "Military (state-disclosed)", "coord_tier": 3, "coord_source": "Wikidata Q757609", "coord_note": null, "prov": [{"tier": 1, "source": "Office for Nuclear Regulation, defence sites: AWE Aldermaston", "url": "https://www.onr.org.uk/our-work/what-we-regulate/defence/defence-sites/awe-aldermaston", "retrieved": "2026-09-22"}]}}, {"type": "Feature", "geometry": {"type": "Point", "coordinates": [-1.024518, 51.405551]}, "properties": {"id": "WP:awe burghfield", "name": "AWE Burghfield", "country": "United Kingdom", "role": "assembly and disassembly", "city": "Burghfield", "region": "Berkshire", "status": "operating", "description": "Site where, in the regulator's words, warheads are assembled and maintained while in service and decommissioned when out of service.", "stage": "weapons-program", "designation": "Military (state-disclosed)", "coord_tier": 3, "coord_source": "Wikidata Q105692721", "coord_note": null, "prov": [{"tier": 1, "source": "Office for Nuclear Regulation, defence sites: AWE Burghfield", "url": "https://www.onr.org.uk/our-work/what-we-regulate/defence/defence-sites/awe-burghfield", "retrieved": "2026-09-22"}]}}, {"type": "Feature", "geometry": {"type": "Point", "coordinates": [-3.488056, 54.418889]}, "properties": {"id": "WP:sellafield windscale piles and calder hall", "name": "Sellafield (Windscale piles and Calder Hall)", "country": "United Kingdom", "role": "production reactors (historical)", "city": "Seascale", "region": "Cumbria", "status": "closed", "description": "Windscale piles produced military plutonium until the 1957 fire; the Calder Hall reactors produced military plutonium until 1989. Now a decommissioning and waste site.", "stage": "weapons-program", "designation": "Military (published compilation)", "coord_tier": 3, "coord_source": "Wikidata Q1063567", "coord_note": null, "prov": [{"tier": 2, "source": "IPFM, Countries: United Kingdom", "url": "https://fissilematerials.org/countries/united_kingdom.html", "retrieved": "2026-09-22"}]}}, {"type": "Feature", "geometry": {"type": "Point", "coordinates": [-3.2265, 55.015619]}, "properties": {"id": "WP:chapelcross", "name": "Chapelcross", "country": "United Kingdom", "role": "production reactors (historical)", "city": "Annan", "region": "Dumfries and Galloway", "status": "closed", "description": "Reactors used to produce plutonium until 1964 and tritium thereafter; shut down 2003–2004.", "stage": "weapons-program", "designation": "Military (published compilation)", "coord_tier": 3, "coord_source": "Wikidata Q1739372", "coord_note": null, "prov": [{"tier": 2, "source": "IPFM, Countries: United Kingdom", "url": "https://fissilematerials.org/countries/united_kingdom.html", "retrieved": "2026-09-22"}]}}, {"type": "Feature", "geometry": {"type": "Point", "coordinates": [-2.95, 53.258]}, "properties": {"id": "WP:capenhurst gaseous diffusion", "name": "Capenhurst (gaseous diffusion plant)", "country": "United Kingdom", "role": "enrichment (military, historical)", "city": "Capenhurst", "region": "Cheshire", "status": "closed", "description": "Gaseous diffusion plant that produced HEU for weapons from 1952 to 1962, then LEU for power reactors until 1982. The centrifuge plant on the same site is civil (Urenco).", "stage": "weapons-program", "designation": "Military (published compilation)", "coord_tier": 3, "coord_source": "Wikidata Q2285773", "coord_note": "village centroid", "prov": [{"tier": 2, "source": "IPFM, Countries: United Kingdom", "url": "https://fissilematerials.org/countries/united_kingdom.html", "retrieved": "2026-09-22"}]}}, {"type": "Feature", "geometry": {"type": "Point", "coordinates": [2.191944, 48.592778]}, "properties": {"id": "WP:cea dam ile de france bruyeres le chatel", "name": "CEA/DAM Île-de-France (Bruyères-le-Châtel)", "country": "France", "role": "design laboratory", "city": "Bruyères-le-Châtel", "region": "Essonne", "status": "operating", "description": "CEA centre that, in its own description, designs the nuclear charges of France's deterrent weapons and guarantees their safety and reliability; also hosts the DAM's high-performance computing.", "stage": "weapons-program", "designation": "Military (state-disclosed)", "coord_tier": 3, "coord_source": "Wikidata Q1138232", "coord_note": "commune centroid", "prov": [{"tier": 1, "source": "CEA, Les centres: DAM Île-de-France", "url": "https://www.cea.fr/Pages/le-cea/les-centres-cea/dam-ile-de-france.aspx", "retrieved": "2026-09-22"}]}}, {"type": "Feature", "geometry": {"type": "Point", "coordinates": [4.870442, 47.58216]}, "properties": {"id": "WP:cea valduc", "name": "CEA Valduc", "country": "France", "role": "nuclear materials and components", "city": "Is-sur-Tille", "region": "Côte-d'Or", "status": "operating", "description": "CEA centre that processes and recycles the materials for the nuclear sub-assemblies of the deterrent's weapons, and operates the Epure radiographic facility under the France–UK defence treaty.", "stage": "weapons-program", "designation": "Military (state-disclosed)", "coord_tier": 3, "coord_source": "Wikidata Q3553525", "coord_note": null, "prov": [{"tier": 1, "source": "CEA, Les centres: Valduc", "url": "https://www.cea.fr/Pages/le-cea/les-centres-cea/valduc.aspx", "retrieved": "2026-09-22"}]}}, {"type": "Feature", "geometry": {"type": "Point", "coordinates": [0.642778, 47.274722]}, "properties": {"id": "WP:cea le ripault", "name": "CEA Le Ripault", "country": "France", "role": "non-nuclear components", "city": "Monts", "region": "Indre-et-Loire", "status": "operating", "description": "CEA centre that designs and manufactures materials for the non-nuclear components of the deterrent's weapons, including pyrotechnic sub-assemblies and warhead casings.", "stage": "weapons-program", "designation": "Military (state-disclosed)", "coord_tier": 3, "coord_source": "Wikidata Q1170894", "coord_note": "commune centroid", "prov": [{"tier": 1, "source": "CEA, Les centres: Le Ripault", "url": "https://www.cea.fr/Pages/le-cea/les-centres-cea/le-ripault.aspx", "retrieved": "2026-09-22"}]}}, {"type": "Feature", "geometry": {"type": "Point", "coordinates": [-0.767778, 44.606111]}, "properties": {"id": "WP:cea cesta", "name": "CEA CESTA", "country": "France", "role": "warhead architecture and experiments", "city": "Le Barp", "region": "Gironde", "status": "operating", "description": "CEA centre responsible, in its own description, for the overall design of the warheads of the French deterrent; operates the Laser Mégajoule.", "stage": "weapons-program", "designation": "Military (state-disclosed)", "coord_tier": 3, "coord_source": "Wikidata Q188864", "coord_note": "commune centroid", "prov": [{"tier": 1, "source": "CEA, Les centres: CESTA", "url": "https://www.cea.fr/Pages/le-cea/les-centres-cea/cesta.aspx", "retrieved": "2026-09-22"}]}}, {"type": "Feature", "geometry": {"type": "Point", "coordinates": [4.709444, 44.143333]}, "properties": {"id": "WP:marcoule g1g3 celestin phenix", "name": "Marcoule (G1–G3, Célestin, Phénix)", "country": "France", "role": "production reactors (historical)", "city": "Chusclan", "region": "Gard", "status": "closed", "description": "Graphite-moderated gas-cooled reactors G1–G3 produced plutonium until 1992; the two Célestin reactors (1967/1968–2009) and the Phénix fast reactor also produced weapon plutonium. Site continues as a civil research and waste-management centre.", "stage": "weapons-program", "designation": "Military (published compilation)", "coord_tier": 3, "coord_source": "Wikidata Q580142", "coord_note": null, "prov": [{"tier": 2, "source": "IPFM, Countries: France", "url": "https://fissilematerials.org/countries/france.html", "retrieved": "2026-09-22"}]}}, {"type": "Feature", "geometry": {"type": "Point", "coordinates": [4.721944, 44.336111]}, "properties": {"id": "WP:pierrelatte military enrichment", "name": "Pierrelatte (military enrichment plant)", "country": "France", "role": "enrichment (military, historical)", "city": "Pierrelatte", "region": "Drôme", "status": "closed", "description": "HEU production ended in June 1996; the plant was shut down and is being dismantled. The Georges Besse II centrifuge plant on the Tricastin site is civil.", "stage": "weapons-program", "designation": "Military (published compilation)", "coord_tier": 3, "coord_source": "Wikidata Q14552211", "coord_note": "Tricastin site", "prov": [{"tier": 2, "source": "IPFM, Countries: France", "url": "https://fissilematerials.org/countries/france.html", "retrieved": "2026-09-22"}]}}, {"type": "Feature", "geometry": {"type": "Point", "coordinates": [104.767, 31.467]}, "properties": {"id": "WP:china academy engineering physics caep", "name": "China Academy of Engineering Physics (CAEP)", "country": "China", "role": "design laboratory", "city": "Mianyang", "region": "Sichuan", "status": "operating", "description": "Research academy in Mianyang described by FAS as the primary design laboratory for Chinese nuclear weapons; on the U.S. Commerce Entity List since 1997 with its subordinate institutes.", "stage": "weapons-program", "designation": "Military (published compilation)", "coord_tier": 2, "coord_source": "Federation of American Scientists, China nuclear forces guide: CAEP", "coord_note": "coordinate as given by FAS (31°28'N 104°46'E), tier 2", "prov": [{"tier": 2, "source": "Federation of American Scientists, China nuclear forces guide: CAEP", "url": "https://nuke.fas.org/guide/china/facility/mianyang.htm", "retrieved": "2026-09-22"}]}}, {"type": "Feature", "geometry": {"type": "Point", "coordinates": [90.583333, 40.166667]}, "properties": {"id": "WP:lop nur test site", "name": "Lop Nur nuclear test site", "country": "China", "role": "test site", "city": "Bayingolin", "region": "Xinjiang", "status": "not testing (CTBT signatory)", "description": "China's nuclear test site; the Bulletin's Nuclear Notebook reports construction at the site and U.S. statements of concern about adherence to a zero-yield standard.", "stage": "weapons-program", "designation": "Military (published compilation)", "coord_tier": 3, "coord_source": "Wikidata Q319412", "coord_note": "Lop Nur lake centroid, not the test base", "prov": [{"tier": 2, "source": "Kristensen, Korda et al., Chinese nuclear weapons, 2025, Bulletin of the Atomic Scientists (Nuclear Notebook)", "url": "https://thebulletin.org/premium/2025-03/chinese-nuclear-weapons-2025/", "retrieved": "2026-09-22"}]}}, {"type": "Feature", "geometry": {"type": "Point", "coordinates": [97.57186, 39.82513]}, "properties": {"id": "WP:jiuquan atomic energy complex 404", "name": "Jiuquan Atomic Energy Complex (Plant 404)", "country": "China", "role": "production reactor (historical) and reprocessing", "city": "Yumen", "region": "Gansu", "status": "reactor closed", "description": "Plutonium production reactor believed shut down in 1984; the complex continues with reprocessing capacity.", "stage": "weapons-program", "designation": "Military (published compilation)", "coord_tier": 3, "coord_source": "Wikidata Q729562", "coord_note": "Yumen city centroid", "prov": [{"tier": 2, "source": "IPFM, Countries: China", "url": "https://fissilematerials.org/countries/china.html", "retrieved": "2026-09-22"}]}}, {"type": "Feature", "geometry": {"type": "Point", "coordinates": [105.83985, 32.43529]}, "properties": {"id": "WP:guangyuan plutonium production complex 821", "name": "Guangyuan plutonium production complex (Plant 821)", "country": "China", "role": "production reactor (historical)", "city": "Guangyuan", "region": "Sichuan", "status": "closed", "description": "Reactor that, per IPFM, probably stopped plutonium production by 1989.", "stage": "weapons-program", "designation": "Military (published compilation)", "coord_tier": 3, "coord_source": "Wikidata Q426237", "coord_note": "Guangyuan city centroid", "prov": [{"tier": 2, "source": "IPFM, Countries: China", "url": "https://fissilematerials.org/countries/china.html", "retrieved": "2026-09-22"}]}}, {"type": "Feature", "geometry": {"type": "Point", "coordinates": [103.518431, 36.150744]}, "properties": {"id": "WP:lanzhou gaseous diffusion 504", "name": "Lanzhou gaseous diffusion plant (Plant 504)", "country": "China", "role": "enrichment (military, historical)", "city": "Lanzhou", "region": "Gansu", "status": "converted to civil", "description": "Produced HEU for weapons; now operates as a civil enrichment facility producing LEU.", "stage": "weapons-program", "designation": "Military (published compilation)", "coord_tier": 3, "coord_source": "Wikidata Q135287608", "coord_note": null, "prov": [{"tier": 2, "source": "IPFM, Countries: China", "url": "https://fissilematerials.org/countries/china.html", "retrieved": "2026-09-22"}]}}, {"type": "Feature", "geometry": {"type": "Point", "coordinates": [43.33, 54.92]}, "properties": {"id": "WP:rfnc vniief sarov", "name": "RFNC-VNIIEF (Sarov)", "country": "Russia", "role": "design laboratory", "city": "Sarov", "region": "Nizhny Novgorod Oblast", "status": "operating", "description": "Nuclear weapon laboratory listed in Presidential Decree No. 556 of 27 April 2007 among the enterprises of the nuclear weapons complex.", "stage": "weapons-program", "designation": "Military (state-disclosed)", "coord_tier": 3, "coord_source": "Wikidata Q3152467", "coord_note": null, "prov": [{"tier": 1, "source": "Podvig, Russian strategic nuclear forces blog: Presidential decree lists Russia's military nuclear facilities (Decree No. 556, 27 April 2007)", "url": "https://russianforces.org/blog/2007/07/presidential_decree_lists_russ.shtml", "retrieved": "2026-09-22"}]}}, {"type": "Feature", "geometry": {"type": "Point", "coordinates": [60.733333, 56.083333]}, "properties": {"id": "WP:rfnc vniitf snezhinsk", "name": "RFNC-VNIITF (Snezhinsk)", "country": "Russia", "role": "design laboratory", "city": "Snezhinsk", "region": "Chelyabinsk Oblast", "status": "operating", "description": "Nuclear weapon laboratory listed in Presidential Decree No. 556 of 27 April 2007.", "stage": "weapons-program", "designation": "Military (state-disclosed)", "coord_tier": 3, "coord_source": "Wikidata Q196357", "coord_note": "city centroid", "prov": [{"tier": 1, "source": "Podvig, Russian strategic nuclear forces blog: Presidential decree lists Russia's military nuclear facilities (Decree No. 556, 27 April 2007)", "url": "https://russianforces.org/blog/2007/07/presidential_decree_lists_russ.shtml", "retrieved": "2026-09-22"}]}}, {"type": "Feature", "geometry": null, "properties": {"id": "WP:vniia dukhov institute moscow", "name": "VNIIA (Dukhov Institute), Moscow", "country": "Russia", "role": "design (non-nuclear components)", "city": "Moscow", "region": "Moscow", "status": "operating", "description": "Institute for warhead design and non-nuclear components listed in Presidential Decree No. 556 of 27 April 2007.", "stage": "weapons-program", "designation": "Military (state-disclosed)", "coord_tier": null, "coord_source": null, "coord_note": "no coordinate assigned (city address only)", "prov": [{"tier": 1, "source": "Podvig, Russian strategic nuclear forces blog: Presidential decree lists Russia's military nuclear facilities (Decree No. 556, 27 April 2007)", "url": "https://russianforces.org/blog/2007/07/presidential_decree_lists_russ.shtml", "retrieved": "2026-09-22"}]}}, {"type": "Feature", "geometry": {"type": "Point", "coordinates": [59.783333, 58.633333]}, "properties": {"id": "WP:elektrokhimpribor lesnoy", "name": "Elektrokhimpribor (Lesnoy)", "country": "Russia", "role": "assembly and disassembly", "city": "Lesnoy", "region": "Sverdlovsk Oblast", "status": "operating", "description": "Weapon assembly and disassembly plant listed in Presidential Decree No. 556 of 27 April 2007.", "stage": "weapons-program", "designation": "Military (state-disclosed)", "coord_tier": 3, "coord_source": "Wikidata Q157523", "coord_note": "city centroid", "prov": [{"tier": 1, "source": "Podvig, Russian strategic nuclear forces blog: Presidential decree lists Russia's military nuclear facilities (Decree No. 556, 27 April 2007)", "url": "https://russianforces.org/blog/2007/07/presidential_decree_lists_russ.shtml", "retrieved": "2026-09-22"}]}}, {"type": "Feature", "geometry": {"type": "Point", "coordinates": [58.45, 54.8]}, "properties": {"id": "WP:instrument building trekhgorny", "name": "Instrument-Building Plant (Trekhgorny)", "country": "Russia", "role": "assembly and disassembly", "city": "Trekhgorny", "region": "Chelyabinsk Oblast", "status": "operating", "description": "Warhead assembly and disassembly plant listed in Presidential Decree No. 556 of 27 April 2007.", "stage": "weapons-program", "designation": "Military (state-disclosed)", "coord_tier": 3, "coord_source": "Wikidata Q196686", "coord_note": "city centroid", "prov": [{"tier": 1, "source": "Podvig, Russian strategic nuclear forces blog: Presidential decree lists Russia's military nuclear facilities (Decree No. 556, 27 April 2007)", "url": "https://russianforces.org/blog/2007/07/presidential_decree_lists_russ.shtml", "retrieved": "2026-09-22"}]}}, {"type": "Feature", "geometry": {"type": "Point", "coordinates": [45.166667, 53.2]}, "properties": {"id": "WP:po start zarechny", "name": "PO Start (Zarechny)", "country": "Russia", "role": "disassembly", "city": "Zarechny", "region": "Penza Oblast", "status": "operating", "description": "Weapon disassembly facility listed in Presidential Decree No. 556 of 27 April 2007.", "stage": "weapons-program", "designation": "Military (state-disclosed)", "coord_tier": 3, "coord_source": "Wikidata Q136715", "coord_note": "city centroid", "prov": [{"tier": 1, "source": "Podvig, Russian strategic nuclear forces blog: Presidential decree lists Russia's military nuclear facilities (Decree No. 556, 27 April 2007)", "url": "https://russianforces.org/blog/2007/07/presidential_decree_lists_russ.shtml", "retrieved": "2026-09-22"}]}}, {"type": "Feature", "geometry": null, "properties": {"id": "WP:novaya zemlya test site", "name": "Novaya Zemlya test site", "country": "Russia", "role": "test site", "city": "Novaya Zemlya", "region": "Arkhangelsk Oblast", "status": "not testing (CTBT ratification withdrawn 2023)", "description": "Nuclear test site listed in Presidential Decree No. 556 of 27 April 2007.", "stage": "weapons-program", "designation": "Military (state-disclosed)", "coord_tier": null, "coord_source": null, "coord_note": "no coordinate assigned (archipelago)", "prov": [{"tier": 1, "source": "Podvig, Russian strategic nuclear forces blog: Presidential decree lists Russia's military nuclear facilities (Decree No. 556, 27 April 2007)", "url": "https://russianforces.org/blog/2007/07/presidential_decree_lists_russ.shtml", "retrieved": "2026-09-22"}]}}, {"type": "Feature", "geometry": {"type": "Point", "coordinates": [84.880741, 56.618288]}, "properties": {"id": "WP:siberian chemical combine seversk", "name": "Siberian Chemical Combine (Seversk)", "country": "Russia", "role": "production reactors (historical), enrichment", "city": "Seversk", "region": "Tomsk Oblast", "status": "reactors closed", "description": "Plutonium production reactors at Seversk, all closed (IPFM lists every Russian production reactor as closed; the Seversk reprocessing plant closed in 2010). The isotope-separation plant continues to produce LEU.", "stage": "weapons-program", "designation": "Military (published compilation)", "coord_tier": 3, "coord_source": "Wikidata Q4418324", "coord_note": null, "prov": [{"tier": 2, "source": "IPFM, Countries: Russia", "url": "https://fissilematerials.org/countries/russia.html", "retrieved": "2026-09-22"}]}}, {"type": "Feature", "geometry": {"type": "Point", "coordinates": [93.533333, 56.25]}, "properties": {"id": "WP:mining and chemical combine zheleznogorsk", "name": "Mining and Chemical Combine (Zheleznogorsk)", "country": "Russia", "role": "production reactor (historical), reprocessing", "city": "Zheleznogorsk", "region": "Krasnoyarsk Krai", "status": "reactor closed 2010", "description": "Plutonium production reactor ADE-2 shut down in April 2010; a pilot demonstration reprocessing centre operates on the site.", "stage": "weapons-program", "designation": "Military (published compilation)", "coord_tier": 3, "coord_source": "Wikidata Q135869", "coord_note": "city centroid", "prov": [{"tier": 2, "source": "IPFM, Countries: Russia", "url": "https://fissilematerials.org/countries/russia.html", "retrieved": "2026-09-22"}]}}, {"type": "Feature", "geometry": {"type": "Point", "coordinates": [72.35, 32.291667]}, "properties": {"id": "WP:khushab production reactors", "name": "Khushab production reactors", "country": "Pakistan", "role": "production reactors", "city": "Khushab", "region": "Punjab", "status": "operating", "description": "Four production reactors at which, per IPFM, Pakistan's plutonium has been produced.", "stage": "weapons-program", "designation": "Military (published compilation)", "coord_tier": 3, "coord_source": "Wikidata Q1249939", "coord_note": "Khushab city centroid, not the complex", "prov": [{"tier": 2, "source": "IPFM, Countries: Pakistan", "url": "https://fissilematerials.org/countries/pakistan.html", "retrieved": "2026-09-22"}]}}, {"type": "Feature", "geometry": {"type": "Point", "coordinates": [72.917778, 19.004722]}, "properties": {"id": "WP:bhabha atomic centre cirus dhruva", "name": "Bhabha Atomic Research Centre (CIRUS, Dhruva)", "country": "India", "role": "production reactors", "city": "Trombay", "region": "Maharashtra", "status": "Dhruva operating", "description": "CIRUS (40 MWt) produced weapon-grade plutonium and was shut down in 2010; Dhruva (100 MWt), commissioned 1985, continues to operate. A pilot-scale enrichment plant began operating in 1985.", "stage": "weapons-program", "designation": "Military (published compilation)", "coord_tier": 3, "coord_source": "Wikidata Q854682", "coord_note": null, "prov": [{"tier": 2, "source": "IPFM, Countries: India", "url": "https://fissilematerials.org/countries/india.html", "retrieved": "2026-09-22"}]}}, {"type": "Feature", "geometry": {"type": "Point", "coordinates": [35.146667, 31.003611]}, "properties": {"id": "WP:dimona negev center", "name": "Dimona reactor (Negev Nuclear Research Center)", "country": "Israel", "role": "production reactor (status not confirmed)", "city": "Dimona", "region": "Negev", "status": "not confirmed", "description": "Israel does not confirm or deny a weapons program. IPFM describes a plutonium production reactor that is still operating and may now be run primarily for tritium production.", "stage": "weapons-program", "designation": "Military (published compilation)", "coord_tier": 3, "coord_source": "Wikidata Q1752912", "coord_note": null, "prov": [{"tier": 2, "source": "IPFM, Countries: Israel", "url": "https://fissilematerials.org/countries/israel.html", "retrieved": "2026-09-22"}]}}, {"type": "Feature", "geometry": {"type": "Point", "coordinates": [125.75, 39.8]}, "properties": {"id": "WP:yongbyon 5 mwe and experimental lwr", "name": "Yongbyon 5 MWe reactor and experimental LWR", "country": "North Korea", "role": "production reactor", "city": "Yongbyon", "region": "North Pyongan", "status": "operating", "description": "The 5 MWe reactor resumed operation in 2021; a light-water reactor under construction since 2010 appeared to begin operating in late 2023, per the Nuclear Notebook.", "stage": "weapons-program", "designation": "Military (published compilation)", "coord_tier": 3, "coord_source": "Wikidata Q499004", "coord_note": null, "prov": [{"tier": 2, "source": "Kristensen, Korda et al., North Korean nuclear weapons, 2024, Bulletin of the Atomic Scientists (Nuclear Notebook)", "url": "https://thebulletin.org/premium/2024-07/north-korean-nuclear-weapons-2024/", "retrieved": "2026-09-22"}]}}, {"type": "Feature", "geometry": {"type": "Point", "coordinates": [129.08722, 41.27778]}, "properties": {"id": "WP:punggye ri test site", "name": "Punggye-ri nuclear test site", "country": "North Korea", "role": "test site", "city": "Kilju", "region": "North Hamgyong", "status": "partially disabled 2018; reconstruction reported", "description": "Test site partially disabled in May 2018; the Nuclear Notebook reports reconstruction since 2022. No test has occurred since 2017.", "stage": "weapons-program", "designation": "Military (published compilation)", "coord_tier": 3, "coord_source": "Wikidata Q5306661", "coord_note": null, "prov": [{"tier": 2, "source": "Kristensen, Korda et al., North Korean nuclear weapons, 2024, Bulletin of the Atomic Scientists (Nuclear Notebook)", "url": "https://thebulletin.org/premium/2024-07/north-korean-nuclear-weapons-2024/", "retrieved": "2026-09-22"}]}}, {"type": "Feature", "geometry": {"type": "Point", "coordinates": [-119.598611, 46.6475]}, "properties": {"id": "WP:hanford site", "name": "Hanford Site", "country": "United States", "role": "production reactors (historical)", "city": "Richland", "region": "Washington", "status": "closed; cleanup", "description": "Produced plutonium for weapons from 1943 to 1987; only N Reactor operated after 1971. Its mission since has been cleanup under the 1989 Tri-Party Agreement.", "stage": "weapons-program", "designation": "Military (state-disclosed)", "coord_tier": 3, "coord_source": "Wikidata Q1284526", "coord_note": null, "prov": [{"tier": 1, "source": "U.S. Department of Energy, Hanford Site history", "url": "https://www.hanford.gov/page.cfm/HanfordHistory", "retrieved": "2026-09-22"}]}}]}